[{"OBJECT_NAME":"DUBAISAT-1","OBJECT_ID":"2009-041B","EPOCH":"2026-03-09T21:53:38.052672","MEAN_MOTION":14.74907438,"ECCENTRICITY":0.00110546,"INCLINATION":97.9873,"RA_OF_ASC_NODE":203.3619,"ARG_OF_PERICENTER":35.633,"MEAN_ANOMALY":324.5615,"EPHEMERIS_TYPE":0,"CLASSIFICATION_TYPE":"U","NORAD_CAT_ID":35682,"ELEMENT_SET_NO":999,"REV_AT_EPOCH":89046,"BSTAR":0.00024928583,"MEAN_MOTION_DOT":1.624e-5,"MEAN_MOTION_DDOT":0},{"OBJECT_NAME":"CZ-6A DEB","OBJECT_ID":"2024-140AK","EPOCH":"2026-03-09T15:33:22.779648","MEAN_MOTION":14.91455209,"ECCENTRICITY":0.0138813,"INCLINATION":89.0614,"RA_OF_ASC_NODE":284.4893,"ARG_OF_PERICENTER":156.7754,"MEAN_ANOMALY":203.9833,"EPHEMERIS_TYPE":0,"CLASSIFICATION_TYPE":"U","NORAD_CAT_ID":60634,"ELEMENT_SET_NO":999,"REV_AT_EPOCH":8558,"BSTAR":0.0013703,"MEAN_MOTION_DOT":0.00016538,"MEAN_MOTION_DDOT":0}]
